{
  "type": "FeatureCollection",
  "features": [
    {
      "type": "Feature",
      "properties": {
        "norad_id": 61182,
        "name": "GSAT0232 (GALILEO 32)",
        "group": "gnss",
        "lat": 40.219878791354944,
        "lon": -97.8111967831689,
        "alt_km": 23222.53821227622,
        "timestamp": "2025-12-19T20:43:00.329483+00:00",
        "meta_object_name": "GSAT0232 (GALILEO 32)",
        "meta_object_id": "2024-167A",
        "meta_epoch": "2025-12-18T08:17:33.319392",
        "meta_mean_motion": 1.70473695,
        "meta_eccentricity": 0.0001893,
        "meta_inclination": 55.239,
        "meta_ra_of_asc_node": 226.2771,
        "meta_arg_of_pericenter": 209.3432,
        "meta_mean_anomaly": 351.1487,
        "meta_ephemeris_type": 0,
        "meta_classification_type": "U",
        "meta_norad_cat_id": 61182,
        "meta_element_set_no": 999,
        "meta_rev_at_epoch": 779,
        "meta_bstar": 0,
        "meta_mean_motion_dot": 6.2e-07,
        "meta_mean_motion_ddot": 0,
        "tle_line1": "1 61182U 24167A   25352.34552453  .00000062  00000+0  00000+0 0  9992",
        "tle_line2": "2 61182  55.2390 226.2771 0001893 209.3432 351.1487  1.70473695  7799"
      },
      "geometry": {
        "type": "Point",
        "coordinates": [
          -97.8111967831689,
          40.219878791354944
        ]
      }
    },
    {
      "type": "Feature",
      "properties": {
        "norad_id": 61183,
        "name": "GSAT0226 (GALILEO 31)",
        "group": "gnss",
        "lat": 12.658242493701092,
        "lon": 37.28693179469647,
        "alt_km": 23219.118938540018,
        "timestamp": "2025-12-19T20:43:00.329495+00:00",
        "meta_object_name": "GSAT0226 (GALILEO 31)",
        "meta_object_id": "2024-167B",
        "meta_epoch": "2025-12-19T04:09:25.934976",
        "meta_mean_motion": 1.70473763,
        "meta_eccentricity": 0.0001068,
        "meta_inclination": 55.2375,
        "meta_ra_of_asc_node": 226.2599,
        "meta_arg_of_pericenter": 106.7588,
        "meta_mean_anomaly": 354.3657,
        "meta_ephemeris_type": 0,
        "meta_classification_type": "U",
        "meta_norad_cat_id": 61183,
        "meta_element_set_no": 999,
        "meta_rev_at_epoch": 778,
        "meta_bstar": 0,
        "meta_mean_motion_dot": 6.7e-07,
        "meta_mean_motion_ddot": 0,
        "tle_line1": "1 61183U 24167B   25353.17321684  .00000067  00000+0  00000+0 0  9990",
        "tle_line2": "2 61183  55.2375 226.2599 0001068 106.7588 354.3657  1.70473763  7786"
      },
      "geometry": {
        "type": "Point",
        "coordinates": [
          37.28693179469647,
          12.658242493701092
        ]
      }
    },
    {
      "type": "Feature",
      "properties": {
        "norad_id": 61186,
        "name": "BEIDOU-3 M25 (C47)",
        "group": "gnss",
        "lat": -8.730665163760628,
        "lon": 134.7049441222899,
        "alt_km": 21534.39140347274,
        "timestamp": "2025-12-19T20:43:00.329508+00:00",
        "meta_object_name": "BEIDOU-3 M25 (C47)",
        "meta_object_id": "2024-168B",
        "meta_epoch": "2025-12-19T07:17:41.808768",
        "meta_mean_motion": 1.86230286,
        "meta_eccentricity": 0.00054499,
        "meta_inclination": 54.6362,
        "meta_ra_of_asc_node": 308.493,
        "meta_arg_of_pericenter": 299.3686,
        "meta_mean_anomaly": 236.4152,
        "meta_ephemeris_type": 0,
        "meta_classification_type": "U",
        "meta_norad_cat_id": 61186,
        "meta_element_set_no": 999,
        "meta_rev_at_epoch": 843,
        "meta_bstar": 0,
        "meta_mean_motion_dot": -7.8e-07,
        "meta_mean_motion_ddot": 0,
        "tle_line1": "1 61186U 24168B   25353.30395612 -.00000078  00000+0  00000+0 0  9994",
        "tle_line2": "2 61186  54.6362 308.4930 0005449 299.3686 236.4152  1.86230286  8436"
      },
      "geometry": {
        "type": "Point",
        "coordinates": [
          134.7049441222899,
          -8.730665163760628
        ]
      }
    },
    {
      "type": "Feature",
      "properties": {
        "norad_id": 61187,
        "name": "BEIDOU-3 M27 (C49)",
        "group": "gnss",
        "lat": -27.374493945782262,
        "lon": -73.12546659569334,
        "alt_km": 21524.84830248729,
        "timestamp": "2025-12-19T20:43:00.329522+00:00",
        "meta_object_name": "BEIDOU-3 M27 (C49)",
        "meta_object_id": "2024-168C",
        "meta_epoch": "2025-12-18T11:15:38.296800",
        "meta_mean_motion": 1.86230443,
        "meta_eccentricity": 0.00025049,
        "meta_inclination": 54.6324,
        "meta_ra_of_asc_node": 308.5054,
        "meta_arg_of_pericenter": 339.4033,
        "meta_mean_anomaly": 131.6614,
        "meta_ephemeris_type": 0,
        "meta_classification_type": "U",
        "meta_norad_cat_id": 61187,
        "meta_element_set_no": 999,
        "meta_rev_at_epoch": 589,
        "meta_bstar": 0,
        "meta_mean_motion_dot": -8.4e-07,
        "meta_mean_motion_ddot": 0,
        "tle_line1": "1 61187U 24168C   25352.46919325 -.00000084  00000+0  00000+0 0  9991",
        "tle_line2": "2 61187  54.6324 308.5054 0002504 339.4033 131.6614  1.86230443  5895"
      },
      "geometry": {
        "type": "Point",
        "coordinates": [
          -73.12546659569334,
          -27.374493945782262
        ]
      }
    },
    {
      "type": "Feature",
      "properties": {
        "norad_id": 62339,
        "name": "GPS BIII-7  (PRN 01)",
        "group": "gnss",
        "lat": 3.4693874031598644,
        "lon": -16.11698727023144,
        "alt_km": 20150.205623376874,
        "timestamp": "2025-12-19T20:43:00.329534+00:00",
        "meta_object_name": "GPS BIII-7  (PRN 01)",
        "meta_object_id": "2024-242A",
        "meta_epoch": "2025-12-18T08:46:28.895808",
        "meta_mean_motion": 2.00568182,
        "meta_eccentricity": 0.0012509,
        "meta_inclination": 54.922,
        "meta_ra_of_asc_node": 341.5124,
        "meta_arg_of_pericenter": 345.6877,
        "meta_mean_anomaly": 17.1618,
        "meta_ephemeris_type": 0,
        "meta_classification_type": "U",
        "meta_norad_cat_id": 62339,
        "meta_element_set_no": 999,
        "meta_rev_at_epoch": 763,
        "meta_bstar": 0,
        "meta_mean_motion_dot": -8.5e-07,
        "meta_mean_motion_ddot": 0,
        "tle_line1": "1 62339U 24242A   25352.36561222 -.00000085  00000+0  00000+0 0  9993",
        "tle_line2": "2 62339  54.9220 341.5124 0012509 345.6877  17.1618  2.00568182  7636"
      },
      "geometry": {
        "type": "Point",
        "coordinates": [
          -16.11698727023144,
          3.4693874031598644
        ]
      }
    },
    {
      "type": "Feature",
      "properties": {
        "norad_id": 62850,
        "name": "NVS-02 (IRNSS-1K)",
        "group": "gnss",
        "lat": -20.94420654284648,
        "lon": -128.12477680374454,
        "alt_km": 13277.55591145411,
        "timestamp": "2025-12-19T20:43:00.329546+00:00",
        "meta_object_name": "NVS-02 (IRNSS-1K)",
        "meta_object_id": "2025-020A",
        "meta_epoch": "2025-12-18T23:33:15.739488",
        "meta_mean_motion": 2.17599842,
        "meta_eccentricity": 0.73473707,
        "meta_inclination": 20.9679,
        "meta_ra_of_asc_node": 325.4007,
        "meta_arg_of_pericenter": 30.2803,
        "meta_mean_anomaly": 356.7502,
        "meta_ephemeris_type": 0,
        "meta_classification_type": "U",
        "meta_norad_cat_id": 62850,
        "meta_element_set_no": 999,
        "meta_rev_at_epoch": 705,
        "meta_bstar": 0.00015278311,
        "meta_mean_motion_dot": 2.77e-06,
        "meta_mean_motion_ddot": 0,
        "tle_line1": "1 62850U 25020A   25352.98143217  .00000277  00000+0  15278-3 0  9993",
        "tle_line2": "2 62850  20.9679 325.4007 7347370  30.2803 356.7502  2.17599842  7051"
      },
      "geometry": {
        "type": "Point",
        "coordinates": [
          -128.12477680374454,
          -20.94420654284648
        ]
      }
    },
    {
      "type": "Feature",
      "properties": {
        "norad_id": 62876,
        "name": "QZS-6 (QZSS/PRN 200)",
        "group": "gnss",
        "lat": 0.05597210899287992,
        "lon": 129.97857948367636,
        "alt_km": 35791.13624377249,
        "timestamp": "2025-12-19T20:43:00.329560+00:00",
        "meta_object_name": "QZS-6 (QZSS/PRN 200)",
        "meta_object_id": "2025-023A",
        "meta_epoch": "2025-12-18T15:26:14.366112",
        "meta_mean_motion": 1.00273059,
        "meta_eccentricity": 0.00014897,
        "meta_inclination": 0.0457,
        "meta_ra_of_asc_node": 67.1424,
        "meta_arg_of_pericenter": 210.3648,
        "meta_mean_anomaly": 132.0918,
        "meta_ephemeris_type": 0,
        "meta_classification_type": "U",
        "meta_norad_cat_id": 62876,
        "meta_element_set_no": 999,
        "meta_rev_at_epoch": 314,
        "meta_bstar": 0,
        "meta_mean_motion_dot": -2.09e-06,
        "meta_mean_motion_ddot": 0,
        "tle_line1": "1 62876U 25023A   25352.64322183 -.00000209  00000+0  00000+0 0  9997",
        "tle_line2": "2 62876   0.0457  67.1424 0001489 210.3648 132.0918  1.00273059  3146"
      },
      "geometry": {
        "type": "Point",
        "coordinates": [
          129.97857948367636,
          0.05597210899287992
        ]
      }
    }
  ]
}